{
    "links": {
        "self": "http://www.neowsapp.com/rest/v1/neo/3148443?api_key=iIulBulltgU6a56xZRHN4H3l9WmuAYTsLGpBGhQ2"
    },
    "id": "3148443",
    "neo_reference_id": "3148443",
    "name": "(2003 CO20)",
    "designation": "2003 CO20",
    "nasa_jpl_url": "http://ssd.jpl.nasa.gov/sbdb.cgi?sstr=3148443",
    "absolute_magnitude_h": 22.882,
    "estimated_diameter": {
        "kilometers": {
            "estimated_diameter_min": 0.0704944581,
            "estimated_diameter_max": 0.1576304004
        },
        "meters": {
            "estimated_diameter_min": 70.4944581324,
            "estimated_diameter_max": 157.6304004211
        },
        "miles": {
            "estimated_diameter_min": 0.0438032119,
            "estimated_diameter_max": 0.0979469595
        },
        "feet": {
            "estimated_diameter_min": 231.2810380191,
            "estimated_diameter_max": 517.1601229174
        }
    },
    "is_potentially_hazardous_asteroid": false,
    "close_approach_data": [
        {
            "close_approach_date": "2003-02-06",
            "close_approach_date_full": "2003-Feb-06 13:34",
            "epoch_date_close_approach": 1044538440000,
            "relative_velocity": {
                "kilometers_per_second": "13.825556269",
                "kilometers_per_hour": "49772.0025683759",
                "miles_per_hour": "30926.3868181111"
            },
            "miss_distance": {
                "astronomical": "0.0292031989",
                "lunar": "11.3600443721",
                "kilometers": "4368736.352626343",
                "miles": "2714606.8915278134"
            },
            "orbiting_body": "Earth"
        }
    ],
    "orbital_data": {
        "orbit_id": "10",
        "orbit_determination_date": "2017-04-06 09:14:20",
        "first_observation_date": "2003-02-11",
        "last_observation_date": "2003-02-18",
        "data_arc_in_days": 7,
        "observations_used": 31,
        "orbit_uncertainty": "8",
        "minimum_orbit_intersection": ".0281743",
        "jupiter_tisserand_invariant": "3.417",
        "epoch_osculation": "2452683.5",
        "eccentricity": ".5415129473841402",
        "semi_major_axis": "2.167716579084204",
        "inclination": "20.4976821221403",
        "ascending_node_longitude": "139.26459339",
        "orbital_period": "1165.741280330479",
        "perihelion_distance": ".993869985250851",
        "perihelion_argument": "339.6973094444583",
        "aphelion_distance": "3.341563172917557",
        "perihelion_time": "2452661.763863841380",
        "mean_anomaly": "6.712474842518114",
        "mean_motion": ".3088163781057342",
        "equinox": "J2000",
        "orbit_class": {
            "orbit_class_type": "APO",
            "orbit_class_description": "Near-Earth asteroid orbits which cross the Earth’s orbit similar to that of 1862 Apollo",
            "orbit_class_range": "a (semi-major axis) > 1.0 AU; q (perihelion) < 1.017 AU"
        }
    },
    "is_sentry_object": false
}